satname,norad_id,inclination_deg,eccentricity,mean_motion_rev_per_day,perigee_km,apogee_km,l1,l2
STARLINK-1556,46033,53.0519,0.0001499,15.06399657,546.1744992776585,548.2507190904926,1 46033U 20055G   26056.52844558  .00002500  00000+0  18668-3 0  9996,2 46033  53.0519 181.2111 0001499  87.7475 272.3686 15.06399657307035
STARLINK-1557,46034,53.0567,0.0001125,15.0639737,546.4405159016324,547.9987211407997,1 46034U 20055H   26056.53214457 -.00000698  00000+0 -28009-4 0  9996,2 46034  53.0567 181.1971 0001125  88.3633 271.7485 15.06397370307031
STARLINK-1558,46035,53.0552,9.22e-05,15.06401455,546.5685818505372,547.8456153023153,1 46035U 20055J   26056.53950381 -.00000222  00000+0  39789-5 0  9990,2 46035  53.0552 181.1638 0000922  98.8078 261.3015 15.06401455307066
STARLINK-1560,46036,53.0549,0.0001156,15.06406403,546.3913657102494,547.9925017597288,1 46036U 20055K   26056.72379509  .00000209  00000+0  32934-4 0  9997,2 46036  53.0549 180.3352 0001156  84.6259 275.4862 15.06406403307098
STARLINK-1567,46038,53.0547,0.0001408,15.06407423,546.2137217320951,548.1638934795183,1 46038U 20055M   26056.53581931 -.00000001  00000+0  18793-4 0  9990,2 46038  53.0547 181.1793 0001408  93.9896 266.1253 15.06407423307056
STARLINK-1569,46039,53.0548,0.0001376,15.06420265,546.1965299128142,548.1023687436691,1 46039U 20055N   26056.74220570  .00002728  00000+0  20182-3 0  9994,2 46039  53.0548 180.2535 0001376  77.0594 283.0548 15.06420265307081
STARLINK-1582,46043,53.0611,5.42e-05,15.06387998,546.8729866983349,547.6236984694697,1 46043U 20055S   26056.48423254  .00008879  00000+0  61443-3 0  9992,2 46043  53.0611 181.4101 0000542  68.5751 291.5296 15.06387998307048
STARLINK-1591,46045,53.0556,0.0001749,15.06337907,546.1905938289501,548.6131473258783,1 46045U 20055U   26056.51002412  .00015095  00000+0  10318-2 0  9999,2 46045  53.0556 181.2936 0001749  79.4885 280.6302 15.06337907307032
STARLINK-1524,46047,53.1504,0.0001556,15.2853793,479.11505264959214,481.24936158684704,1 46047U 20055W   26056.91671296  .01025230  00000+0  33457-1 0  9998,2 46047  53.1504 168.4523 0001556  88.6252  54.5161 15.28537930  5727
STARLINK-1527,46048,53.1527,0.000135,15.28552343,479.21322754571975,481.06496209132,1 46048U 20055X   26056.91671296  .00908976  00000+0  29943-1 0  9990,2 46048  53.1527 168.5797 0001350  80.1158  12.7585 15.28552343  5722
STARLINK-1540,46051,53.1467,9.33e-05,15.27604355,482.3360275182067,483.61631123561256,1 46051U 20055AA  26056.91671296  .01109131  00000+0  37494-1 0  9991,2 46051  53.1467 168.4689 0000933  76.1598 258.4153 15.27604355  5738
STARLINK-1541,46052,53.1325,0.0001149,15.24686633,490.9372284118617,492.51592306156635,1 46052U 20055AB  26056.91671296  .00053711  00000+0  21425-2 0  9991,2 46052  53.1325 168.4483 0001149  70.6313 355.9636 15.24686633  5733
STARLINK-1543,46053,53.1418,0.0001004,15.26462506,485.7081170753718,487.08651556608856,1 46053U 20055AC  26056.91671296  .01100158  00000+0  38519-1 0  9992,2 46053  53.1418 168.5298 0001004  69.1107 291.5899 15.26462506  5780
STARLINK-1548,46054,53.1396,3.6e-05,15.25893912,487.8553138788193,488.3496831227112,1 46054U 20055AD  26056.91671296  .01003488  00000+0  35528-1 0  9998,2 46054  53.1396 168.5199 0000360 100.4551 225.6144 15.25893912  5781
STARLINK-1554,46055,53.1309,9.04e-05,15.24296369,492.27797335024025,493.52025667983435,1 46055U 20055AE  26056.91671296  .00049751  00000+0  20099-2 0  9999,2 46055  53.1309 168.5988 0000904  73.5757 289.7336 15.24296369  5779
STARLINK-1564,46058,53.1403,3.25e-05,15.26087136,487.29977761391183,487.74604550816366,1 46058U 20055AH  26056.91671296  .01051624  00000+0  36865-1 0  9992,2 46058  53.1403 168.9967 0000325 109.0277 229.3067 15.26087136  5781
STARLINK-1570,46059,53.1514,8.59e-05,15.29244474,477.48063513281977,478.6585314238264,1 46059U 20055AJ  26056.91671296  .00033637  00000+0  11767-2 0  9991,2 46059  53.1514 168.5608 0000859  69.9946  94.2019 15.29244474  5781
STARLINK-1572,46060,53.1323,0.0001678,15.24372595,491.51713499740436,493.82297784554066,1 46060U 20055AK  26056.91671296  .01022838  00000+0  37836-1 0  9999,2 46060  53.1323 168.6447 0001678  81.6432  56.0992 15.24372595  5781
STARLINK-1573,46061,53.1525,0.0001248,15.29283593,477.0970218358816,478.8083018154739,1 46061U 20055AL  26056.91671296  .00033257  00000+0  11622-2 0  9992,2 46061  53.1525 168.5386 0001248 105.7818 130.9552 15.29283593  5784
STARLINK-1577,46063,53.1542,4.81e-05,15.29316562,477.52435259712456,478.1838989434236,1 46063U 20055AN  26056.91671296  .00015734  00000+0  55708-3 0  9998,2 46063  53.1542 168.4784 0000481  69.5052  38.7774 15.29316562  5774
STARLINK-1583,46064,53.1534,5.37e-05,15.29329195,477.4482051503792,478.18453454230166,1 46064U 20055AP  26056.91671296  .00010425  00000+0  37339-3 0  9991,2 46064  53.1534 168.4953 0000537  57.5359 221.9679 15.29329195  5780
STARLINK-1525,46066,53.0534,0.0001315,15.0639685,546.3105276465076,548.1318968563291,1 46066U 20055AR  26056.49805059  .00004627  00000+0  32936-3 0  9997,2 46066  53.0534 151.3495 0001315  98.1732 261.9406 15.06396850307463
STARLINK-1536,46070,53.0548,0.0002315,15.06442492,545.4781410962523,548.6845171826444,1 46070U 20055AV  26056.47591470 -.00006224  00000+0 -39879-3 0  9999,2 46070  53.0548 151.4490 0002315  90.7452 269.3802 15.06442492307474
STARLINK-1542,46073,53.0532,0.0001418,15.06400389,546.2283514531018,548.1923799660171,1 46073U 20055AY  26056.53489838  .00006971  00000+0  48640-3 0  9996,2 46073  53.0532 151.1845 0001418  84.5819 275.5331 15.06400389307477
STARLINK-1549,46074,53.0552,0.000126,15.0644413,546.2037322689666,547.9488860228712,1 46074U 20055AZ  26056.65282688 -.00008178  00000+0 -53009-3 0  9992,2 46074  53.0552 150.6538 0001260 112.4189 247.6933 15.06444130307480
STARLINK-1551,46075,53.0553,0.000171,15.06408678,546.0007311904455,548.3691913011917,1 46075U 20055BA  26056.67863971 -.00000756  00000+0 -31855-4 0  9995,2 46075  53.0553 150.5376 0001710 107.8235 252.2941 15.06408678307490
STARLINK-1552,46076,53.0559,0.0001399,15.0640267,546.2345196664819,548.1722299033472,1 46076U 20055BB  26056.63809962 -.00000484  00000+0 -13595-4 0  9991,2 46076  53.0559 150.7201 0001399  94.3576 265.7573 15.06402670307471
STARLINK-1559,46077,53.0272,0.00036,15.2834768,478.28214838698204,483.2205479976801,1 46077U 20055BC  26056.46708690  .00018941  00000+0  68773-3 0  9991,2 46077  53.0272 130.7844 0003600 353.0456   7.0492 15.28347680307711
